STARLINK-2022           
1 47643U 21012Z   24251.52793934  .00003298  00000+0  24048-3 0  9998
2 47643  53.0568 352.4111 0001699  96.7781 263.3401 15.06360085197126
